{
  "type": "FeatureCollection",
  "features": [
    {
      "type": "Feature",
      "properties": {
        "norad_id": 66344,
        "name": "STARLINK-35511",
        "group": "last-30-days",
        "lat": -23.772556033729124,
        "lon": -119.91517687682285,
        "alt_km": 416.75451326328766,
        "timestamp": "2025-12-04T15:47:52.867522+00:00",
        "meta_object_name": "STARLINK-35511",
        "meta_object_id": "2025-253AB",
        "meta_epoch": "2025-12-04T04:02:54.289824",
        "meta_mean_motion": 15.50595895,
        "meta_eccentricity": 0.00013278,
        "meta_inclination": 43.0009,
        "meta_ra_of_asc_node": 34.7407,
        "meta_arg_of_pericenter": 272.093,
        "meta_mean_anomaly": 87.9778,
        "meta_ephemeris_type": 0,
        "meta_classification_type": "U",
        "meta_norad_cat_id": 66344,
        "meta_element_set_no": 999,
        "meta_rev_at_epoch": 560,
        "meta_bstar": 0.000184478,
        "meta_mean_motion_dot": 0.00010502,
        "meta_mean_motion_ddot": 0,
        "tle_line1": "1 66344U 25253AB  25338.16868391  .00010502  00000+0  18448-3 0  9998",
        "tle_line2": "2 66344  43.0009  34.7407 0001327 272.0930  87.9778 15.50595895  5601"
      },
      "geometry": {
        "type": "Point",
        "coordinates": [
          -119.91517687682285,
          -23.772556033729124
        ]
      }
    },
    {
      "type": "Feature",
      "properties": {
        "norad_id": 66345,
        "name": "STARLINK-35440",
        "group": "last-30-days",
        "lat": -1.2060592825279701,
        "lon": -146.74482573968035,
        "alt_km": 440.3895215419134,
        "timestamp": "2025-12-04T15:47:52.867532+00:00",
        "meta_object_name": "STARLINK-35440",
        "meta_object_id": "2025-253AC",
        "meta_epoch": "2025-12-04T08:00:01.999872",
        "meta_mean_motion": 15.43244953,
        "meta_eccentricity": 0.00010733,
        "meta_inclination": 43.0009,
        "meta_ra_of_asc_node": 33.8386,
        "meta_arg_of_pericenter": 269.3027,
        "meta_mean_anomaly": 266.0229,
        "meta_ephemeris_type": 0,
        "meta_classification_type": "U",
        "meta_norad_cat_id": 66345,
        "meta_element_set_no": 999,
        "meta_rev_at_epoch": 557,
        "meta_bstar": -0.046079975,
        "meta_mean_motion_dot": -0.01881415,
        "meta_mean_motion_ddot": 0,
        "tle_line1": "1 66345U 25253AC  25338.33335648 -.01881415  00000+0 -46080-1 0  9995",
        "tle_line2": "2 66345  43.0009  33.8386 0001073 269.3027 266.0229 15.43244953  5577"
      },
      "geometry": {
        "type": "Point",
        "coordinates": [
          -146.74482573968035,
          -1.2060592825279701
        ]
      }
    },
    {
      "type": "Feature",
      "properties": {
        "norad_id": 66346,
        "name": "STARLINK-35482",
        "group": "last-30-days",
        "lat": -21.879035826983674,
        "lon": -122.59100660452496,
        "alt_km": 418.2325724662769,
        "timestamp": "2025-12-04T15:47:52.867543+00:00",
        "meta_object_name": "STARLINK-35482",
        "meta_object_id": "2025-253AD",
        "meta_epoch": "2025-12-04T05:36:13.421088",
        "meta_mean_motion": 15.49984079,
        "meta_eccentricity": 0.0006596,
        "meta_inclination": 43.0007,
        "meta_ra_of_asc_node": 34.3655,
        "meta_arg_of_pericenter": 298.3557,
        "meta_mean_anomaly": 61.6638,
        "meta_ephemeris_type": 0,
        "meta_classification_type": "U",
        "meta_norad_cat_id": 66346,
        "meta_element_set_no": 999,
        "meta_rev_at_epoch": 561,
        "meta_bstar": 0.0034196484,
        "meta_mean_motion_dot": 0.00201334,
        "meta_mean_motion_ddot": 0,
        "tle_line1": "1 66346U 25253AD  25338.23348867  .00201334  00000+0  34196-2 0  9991",
        "tle_line2": "2 66346  43.0007  34.3655 0006596 298.3557  61.6638 15.49984079  5610"
      },
      "geometry": {
        "type": "Point",
        "coordinates": [
          -122.59100660452496,
          -21.879035826983674
        ]
      }
    },
    {
      "type": "Feature",
      "properties": {
        "norad_id": 66347,
        "name": "STARLINK-35438",
        "group": "last-30-days",
        "lat": -25.062632291687716,
        "lon": -118.01037739949642,
        "alt_km": 415.60375160971125,
        "timestamp": "2025-12-04T15:47:52.867555+00:00",
        "meta_object_name": "STARLINK-35438",
        "meta_object_id": "2025-253AE",
        "meta_epoch": "2025-12-04T05:35:09.910176",
        "meta_mean_motion": 15.5068304,
        "meta_eccentricity": 0.00016217,
        "meta_inclination": 43.0004,
        "meta_ra_of_asc_node": 34.3583,
        "meta_arg_of_pericenter": 224.4701,
        "meta_mean_anomaly": 135.6029,
        "meta_ephemeris_type": 0,
        "meta_classification_type": "U",
        "meta_norad_cat_id": 66347,
        "meta_element_set_no": 999,
        "meta_rev_at_epoch": 561,
        "meta_bstar": 0.0027952955,
        "meta_mean_motion_dot": 0.0016783,
        "meta_mean_motion_ddot": 0,
        "tle_line1": "1 66347U 25253AE  25338.23275359  .00167830  00000+0  27953-2 0  9992",
        "tle_line2": "2 66347  43.0004  34.3583 0001621 224.4701 135.6029 15.50683040  5615"
      },
      "geometry": {
        "type": "Point",
        "coordinates": [
          -118.01037739949642,
          -25.062632291687716
        ]
      }
    },
    {
      "type": "Feature",
      "properties": {
        "norad_id": 66348,
        "name": "STARLINK-35849",
        "group": "last-30-days",
        "lat": 51.33443505974174,
        "lon": 24.856218237595346,
        "alt_km": 385.89763000204493,
        "timestamp": "2025-12-04T15:47:52.867566+00:00",
        "meta_object_name": "STARLINK-35849",
        "meta_object_id": "2025-254A",
        "meta_epoch": "2025-12-04T08:00:01.999872",
        "meta_mean_motion": 15.59338229,
        "meta_eccentricity": 0.00012749,
        "meta_inclination": 53.1594,
        "meta_ra_of_asc_node": 316.881,
        "meta_arg_of_pericenter": 69.2353,
        "meta_mean_anomaly": 344.1505,
        "meta_ephemeris_type": 0,
        "meta_classification_type": "U",
        "meta_norad_cat_id": 66348,
        "meta_element_set_no": 999,
        "meta_rev_at_epoch": 557,
        "meta_bstar": -0.028447042,
        "meta_mean_motion_dot": -0.02003824,
        "meta_mean_motion_ddot": 0,
        "tle_line1": "1 66348U 25254A   25338.33335648 -.02003824  00000+0 -28447-1 0  9997",
        "tle_line2": "2 66348  53.1594 316.8810 0001274  69.2353 344.1505 15.59338229  5571"
      },
      "geometry": {
        "type": "Point",
        "coordinates": [
          24.856218237595346,
          51.33443505974174
        ]
      }
    },
    {
      "type": "Feature",
      "properties": {
        "norad_id": 66349,
        "name": "STARLINK-35848",
        "group": "last-30-days",
        "lat": 51.833413281531584,
        "lon": 27.835845974498582,
        "alt_km": 385.8389737770967,
        "timestamp": "2025-12-04T15:47:52.867577+00:00",
        "meta_object_name": "STARLINK-35848",
        "meta_object_id": "2025-254B",
        "meta_epoch": "2025-12-04T08:00:01.999872",
        "meta_mean_motion": 15.59337794,
        "meta_eccentricity": 0.00012606,
        "meta_inclination": 53.1592,
        "meta_ra_of_asc_node": 316.8763,
        "meta_arg_of_pericenter": 71.4078,
        "meta_mean_anomaly": 343.8954,
        "meta_ephemeris_type": 0,
        "meta_classification_type": "U",
        "meta_norad_cat_id": 66349,
        "meta_element_set_no": 999,
        "meta_rev_at_epoch": 557,
        "meta_bstar": -0.028441414,
        "meta_mean_motion_dot": -0.02003438,
        "meta_mean_motion_ddot": 0,
        "tle_line1": "1 66349U 25254B   25338.33335648 -.02003438  00000+0 -28441-1 0  9993",
        "tle_line2": "2 66349  53.1592 316.8763 0001260  71.4078 343.8954 15.59337794  5571"
      },
      "geometry": {
        "type": "Point",
        "coordinates": [
          27.835845974498582,
          51.833413281531584
        ]
      }
    },
    {
      "type": "Feature",
      "properties": {
        "norad_id": 66350,
        "name": "STARLINK-35829",
        "group": "last-30-days",
        "lat": 52.255205939953534,
        "lon": 30.877462663607744,
        "alt_km": 385.7722760411989,
        "timestamp": "2025-12-04T15:47:52.867587+00:00",
        "meta_object_name": "STARLINK-35829",
        "meta_object_id": "2025-254C",
        "meta_epoch": "2025-12-04T08:00:01.999872",
        "meta_mean_motion": 15.59338067,
        "meta_eccentricity": 0.00012745,
        "meta_inclination": 53.159,
        "meta_ra_of_asc_node": 316.8724,
        "meta_arg_of_pericenter": 72.6422,
        "meta_mean_anomaly": 344.5773,
        "meta_ephemeris_type": 0,
        "meta_classification_type": "U",
        "meta_norad_cat_id": 66350,
        "meta_element_set_no": 999,
        "meta_rev_at_epoch": 557,
        "meta_bstar": -0.028443167,
        "meta_mean_motion_dot": -0.02003575,
        "meta_mean_motion_ddot": 0,
        "tle_line1": "1 66350U 25254C   25338.33335648 -.02003575  00000+0 -28443-1 0  9999",
        "tle_line2": "2 66350  53.1590 316.8724 0001274  72.6422 344.5773 15.59338067  5570"
      },
      "geometry": {
        "type": "Point",
        "coordinates": [
          30.877462663607744,
          52.255205939953534
        ]
      }
    }
  ]
}